STARLINK-1007           
1 44713U 19074A   24119.93572629  .00014684  00000+0  10031-2 0  9999
2 44713  53.0543 358.1503 0001400  89.1570 270.9579 15.06383374246293
STARLINK-1008           
1 44714U 19074B   24119.91454422 -.00008566  00000+0 -55711-3 0  9997
2 44714  53.0539 358.2451 0001523  78.6192 281.4968 15.06382198246293
STARLINK-1009           
1 44715U 19074C   24119.90349289  .00002197  00000+0  16634-3 0  9994
2 44715  53.0550 358.2946 0001440  97.0212 263.0941 15.06400068246285
STARLINK-1010           
1 44716U 19074D   24119.92193293  .00013487  00000+0  92308-3 0  9995
2 44716  53.0532 358.2143 0001456  76.5258 283.5893 15.06380672246274
STARLINK-1011           
1 44717U 19074E   24119.92006357 -.00004962  00000+0 -31471-3 0  9994
2 44717  53.0539  18.2230 0001544 107.4100 252.7058 15.06367337246016
STARLINK-1012           
1 44718U 19074F   24119.95877964  .00011484  00000+0  78895-3 0  9994
2 44718  53.0551 358.0473 0001586 110.5997 249.5163 15.06383469246295
STARLINK-1013           
1 44719U 19074G   24119.89980778  .00010358  00000+0  71356-3 0  9990
2 44719  53.0555 358.3118 0001160  66.6016 293.5094 15.06382432247416
STARLINK-1014           
1 44720U 19074H   24119.92153401  .00016097  00000+0  10288-2 0  9993
2 44720  53.0548 357.5581 0002192 144.3218 215.7919 15.08778957246301
STARLINK-1015           
1 44721U 19074J   24119.90717223  .00008819  00000+0  61067-3 0  9995
2 44721  53.0540 358.2797 0001363 106.2230 253.8909 15.06372313246284
STARLINK-1017           
1 44723U 19074L   24119.92561502  .00001910  00000+0  14713-3 0  9997
2 44723  53.0547 358.1923 0001742  96.3508 263.7680 15.06393490246297
STARLINK-1019           
1 44724U 19074M   24119.95510241  .00014086  00000+0  96314-3 0  9990
2 44724  53.0549 358.0632 0001174  91.7507 268.3616 15.06379951246299
STARLINK-1020           
1 44725U 19074N   24119.89429043 -.00001061  00000+0 -52358-4 0  9995
2 44725  53.0569  18.3420 0001631  99.0861 261.0313 15.06380861246000
STARLINK-1021           
1 44726U 19074P   24119.95141239  .00014883  00000+0  10163-2 0  9991
2 44726  53.0549 358.0802 0001458  73.5904 286.5245 15.06386814246290
STARLINK-1027           
1 44732U 19074V   24119.94957813 -.00000785  00000+0 -33847-4 0  9994
2 44732  53.0558  18.0972 0001475  84.2801 275.8357 15.06380435246010
STARLINK-1028           
1 44733U 19074W   24119.94772774 -.00001814  00000+0 -10299-3 0  9995
2 44733  53.0559 358.0996 0001256 102.2749 257.8381 15.06386369246293
STARLINK-1029           
1 44734U 19074X   24119.76341731 -.00002767  00000+0 -16699-3 0  9999
2 44734  53.0544 278.9224 0001351 100.7143 259.3998 15.06381783247364
STARLINK-1030           
1 44735U 19074Y   24119.89059054  .00004425  00000+0  31598-3 0  9994
2 44735  53.0542  18.3542 0001584  79.7364 280.3804 15.06372080246000
STARLINK-1031           
1 44736U 19074Z   24119.97168391 -.00004414  00000+0 -27779-3 0  9995
2 44736  53.0547  17.9899 0001547  96.1681 263.9485 15.06378909246020
STARLINK-1032           
1 44737U 19074AA  24119.91639585  .00005258  00000+0  37189-3 0  9999
2 44737  53.0544  18.2394 0002438  76.2185 283.9075 15.06371753246016
STARLINK-1035           
1 44740U 19074AD  24119.91270764  .00009599  00000+0  66303-3 0  9995
2 44740  53.0543  18.2635 0001340  75.5939 284.5199 15.06367317246012
STARLINK-1036           
1 44741U 19074AE  24119.92376383  .00009860  00000+0  68048-3 0  9990
2 44741  53.0540  18.2053 0001321  75.6670 284.4466 15.06366895246012
STARLINK-1038           
1 44743U 19074AG  24119.50908147 -.00010581  00000+0 -69246-3 0  9990
2 44743  53.0551  40.0630 0002163  75.8174 284.3056 15.06399862245761
STARLINK-1039           
1 44744U 19074AH  24119.91822867  .00009303  00000+0  64290-3 0  9992
2 44744  53.0550  38.2308 0001230  70.9320 289.1802 15.06381066245731
STARLINK-1041           
1 44746U 19074AK  24119.50539472  .00002026  00000+0  15488-3 0  9996
2 44746  53.0548  40.0821 0001629  75.0539 285.0631 15.06398318245677
STARLINK-1042           
1 44747U 19074AL  24119.49987527  .00043890  00000+0  24233-2 0  9994
2 44747  53.0546  37.6603 0002663  90.0386 270.0911 15.13525347245714
STARLINK-1043           
1 44748U 19074AM  24119.49803376  .00007053  00000+0  49174-3 0  9997
2 44748  53.0544  40.1154 0001888  70.5242 289.5951 15.06411929245671
STARLINK-1046           
1 44751U 19074AQ  24119.51277303  .00002480  00000+0  18536-3 0  9996
2 44751  53.0542  40.0503 0002016  73.3170 286.8041 15.06399530245678
STARLINK-1047           
1 44752U 19074AR  24119.93113217  .00015306  00000+0  10446-2 0  9998
2 44752  53.0549  18.1708 0001523 106.0617 254.0539 15.06385802246016
STARLINK-1048           
1 44753U 19074AS  24119.93668291  .00001225  00000+0  10115-3 0  9995
2 44753  53.0560 358.1464 0001513  98.9222 261.1939 15.06375881246295
STARLINK-1052           
1 44757U 19074AW  24119.93464280  .00017469  00000+0  77265-3 0  9997
2 44757  53.0508   6.2629 0004721  86.6565 273.4970 15.21779939246181
STARLINK-1053           
1 44758U 19074AX  24119.49435572  .00008924  00000+0  61703-3 0  9997
2 44758  53.0545  40.2196 0002872  72.3476 287.7827 15.06413732245679
STARLINK-1054           
1 44759U 19074AY  24119.94034023  .00002760  00000+0  20432-3 0  9990
2 44759  53.0554  38.1300 0001461  80.7693 279.3462 15.06361477243386
STARLINK-1055           
1 44760U 19074AZ  24119.95254029  .00013276  00000+0  47939-3 0  9998
2 44760  53.0143 355.8482 0005996 121.7316 238.4267 15.28803906246347
STARLINK-1056           
1 44761U 19074BA  24119.93666932  .00013967  00000+0  95514-3 0  9996
2 44761  53.0558  38.1459 0001297  77.7761 282.3373 15.06383534245742
STARLINK-1057           
1 44762U 19074BB  24119.93850518  .00012584  00000+0  86283-3 0  9999
2 44762  53.0544  18.1401 0001061  77.3859 282.7249 15.06373412246017
STARLINK-1058           
1 44763U 19074BC  24119.92563912 -.00000199  00000+0  55122-5 0  9998
2 44763  53.0549  38.5419 0001201  50.9221 309.1875 15.06349514245737
STARLINK-1059           
1 44764U 19074BD  24119.92517159  .00071128  00000+0  21001-2 0  9996
2 44764  53.0793 316.8183 0003786  70.4994 289.6416 15.34338604246905
STARLINK-1060           
1 44765U 19074BE  24119.95325040  .00007809  00000+0  54298-3 0  9996
2 44765  53.0544  18.0731 0001153  65.3163 294.7946 15.06369492246012
STARLINK-1061           
1 44766U 19074BF  24119.95140567 -.00011061  00000+0 -72521-3 0  9992
2 44766  53.0552  38.0786 0001332  79.8131 280.3008 15.06379119245744
STARLINK-1062           
1 44767U 19074BG  24119.95534609  .00004279  00000+0  31977-3 0  9998
2 44767  53.0547  38.1834 0001674  76.4690 283.6484 15.04726401245748
STARLINK-1063           
1 44768U 19074BH  24119.50171119  .00001037  00000+0  88500-4 0  9997
2 44768  53.0541  40.0996 0001431  95.9170 264.1982 15.06407903245689
STARLINK-1067           
1 44771U 19074BL  24119.95509129  .00005736  00000+0  40395-3 0  9995
2 44771  53.0545  38.0646 0001652  76.5773 283.5400 15.06369837245745
STARLINK-1068           
1 44772U 19074BM  24119.94588461  .00009912  00000+0  68383-3 0  9998
2 44772  53.0546  18.1070 0001402  87.3131 272.8018 15.06373617246016
STARLINK-1073           
1 44914U 20001A   24119.82975972 -.00000102  00000+0  12061-4 0  9998
2 44914  53.0528 158.6230 0001557  83.5068 276.6098 15.06402629237375
STARLINK-1084           
1 44915U 20001B   24119.52750893  .00003808  00000+0  27431-3 0  9990
2 44915  53.0524 159.9800 0001444  90.5454 269.5700 15.06414625237337
STARLINK-1098           
1 44917U 20001D   24119.79658458 -.00000531  00000+0 -16741-4 0  9990
2 44917  53.0524 158.7728 0001437  85.5312 274.5841 15.06404020237378
STARLINK-1099           
1 44918U 20001E   24119.68451881  .00071772  00000+0  78975-3 0  9999
2 44918  53.0504 102.7636 0004609  28.0786 332.0476 15.62515674238897
STARLINK-1102           
1 44920U 20001G   24119.67102925  .00023841  00000+0  78182-3 0  9997
2 44920  53.0509 107.3814 0002192 107.4455 252.6785 15.31522186238098
STARLINK-1103           
1 44921U 20001H   24119.83987242  .00000234  00000+0  34585-4 0  9990
2 44921  53.0527 158.5412 0001488  82.0873 278.0285 15.06404700237358
STARLINK-1104           
1 44922U 20001J   24119.81135905  .00004420  00000+0  31541-3 0  9999
2 44922  53.0524 158.7056 0001760  84.8761 275.2429 15.06400604237371
STARLINK-1106           
1 44923U 20001K   24119.42017932  .00018871  00000+0  72767-3 0  9996
2 44923  53.0170 122.9204 0005221  49.2635 310.8815 15.26354983237845
STARLINK-1111           
1 44924U 20001L   24119.91667824  .00050338  00000+0  41808-3 0  9998
2 44924  53.0526 146.6317 0001414  83.5418 202.4586 15.69692920  5947
STARLINK-1112           
1 44925U 20001M   24119.84082190  .00000658  00000+0  63098-4 0  9994
2 44925  53.0509 158.5736 0001673  93.8851 266.2329 15.06401170237371
STARLINK-1113           
1 44926U 20001N   24119.91667824  .00154222  00000+0  25462-2 0  9994
2 44926  53.0537 147.6584 0003516  46.3017  69.9081 15.51238388  5946
STARLINK-1114           
1 44927U 20001P   24119.52013285  .00002469  00000+0  18452-3 0  9995
2 44927  53.0523 160.0124 0001630  99.0632 261.0542 15.06420081237334
STARLINK-1119           
1 44928U 20001Q   24119.91667824  .00353313  58638-4  10335-2 0  9996
2 44928  53.0389  87.1812 0007396  74.3625 157.5056 15.92245729  5916
STARLINK-1123           
1 44930U 20001S   24119.80026794 -.00000881  00000+0 -40251-4 0  9990
2 44930  53.0530 158.7563 0001467  99.8474 260.2681 15.06405570237372
STARLINK-1128           
1 44931U 20001T   24119.91667824  .00243949  00000+0  55101-2 0  9998
2 44931  53.0443 115.1811 0010789  41.0637 210.9555 15.41723445  5879
STARLINK-1130 (DARKSAT) 
1 44932U 20001U   24119.39112715  .00003765  00000+0  27143-3 0  9991
2 44932  53.0528 160.5933 0001481  94.1103 266.0055 15.06416313238542
STARLINK-1144           
